NORAD_CAT_ID,OBJECT_NAME,OBJECT_TYPE,EPOCH,MEAN_MOTION,ECCENTRICITY,INCLINATION,RA_OF_ASC_NODE,ARG_OF_PERICENTER,MEAN_ANOMALY,BSTAR,MEAN_MOTION_DOT,MEAN_MOTION_DDOT,TLE_LINE0,TLE_LINE1,TLE_LINE2,SEMIMAJOR_AXIS,PERIOD,APOGEE,PERIGEE,DECAYED
55393.0,STARLINK-4786,PAYLOAD,2023-04-22 00:39:09,15.69933294,0.0003839,69.9999,223.7992,265.7304,94.3453,3.2707e-05,3.723e-05,0.0,0 STARLINK-4786,1 55393U 23014C   23112.02719678  .00003723  00000-0  32707-4 0  9992,2 55393  69.9999 223.7992 0003839 265.7304  94.3453 15.69933294 12813,6737.225,91.724,361.676,356.503,0.0
55393.0,STARLINK-4786,PAYLOAD,2023-04-22 09:49:40,15.69927951,0.0003073,70.0018,222.7256,260.9012,99.1836,2.109e-05,2.324e-05,0.0,0 STARLINK-4786,1 55393U 23014C   23112.40950109  .00002324  00000-0  21090-4 0  9999,2 55393  70.0018 222.7256 0003073 260.9012  99.1836 15.69927951 12870,6737.24,91.724,361.175,357.035,0.0
55393.0,STARLINK-4786,PAYLOAD,2023-04-22 19:00:12,15.69918726,0.0003352,70.0018,221.6517,261.1161,98.9655,-2.8275e-06,-5.53e-06,0.0,0 STARLINK-4786,1 55393U 23014C   23112.79180594 -.00000553  00000-0 -28275-5 0  9991,2 55393  70.0018 221.6517 0003352 261.1161  98.9655 15.69918726 13873,6737.267,91.724,361.39,356.873,0.0
55393.0,STARLINK-4786,PAYLOAD,2023-04-23 07:14:12,15.69923841,0.0003679,69.9986,220.2165,262.5694,97.5084,6.5557e-06,5.75e-06,0.0,0 STARLINK-4786,1 55393U 23014C   23113.30153697  .00000575  00000-0  65557-5 0  9999,2 55393  69.9986 220.2165 0003679 262.5694  97.5084 15.69923841 13950,6737.252,91.724,361.596,356.638,0.0
55393.0,STARLINK-4786,PAYLOAD,2023-04-23 16:24:43,15.69932846,0.0003338,69.9989,219.142,266.0659,94.0155,2.5274e-05,2.828e-05,0.0,0 STARLINK-4786,1 55393U 23014C   23113.68383317  .00002828  00000-0  25274-4 0  9998,2 55393  69.9989 219.1420 0003338 266.0659  94.0155 15.69932846 14010,6737.226,91.724,361.34,356.842,0.0
55393.0,STARLINK-4786,PAYLOAD,2023-04-24 06:10:28,15.69940184,0.0003219,69.9992,217.5291,264.432,95.6509,4.3894e-05,5.072e-05,0.0,0 STARLINK-4786,1 55393U 23014C   23114.25727856  .00005072  00000-0  43894-4 0  9994,2 55393  69.9992 217.5291 0003219 264.4320  95.6509 15.69940184 14101,6737.205,91.723,361.239,356.901,0.0
55393.0,STARLINK-4786,PAYLOAD,2023-04-26 10:10:03,15.6994992,0.0003077,70.0012,211.4402,260.3004,99.7844,0.00011033,0.00013088,0.0,0 STARLINK-4786,1 55393U 23014C   23116.42365516  .00013088  00000-0  11033-3 0  9991,2 55393  70.0012 211.4402 0003077 260.3004  99.7844 15.69949920 14441,6737.177,91.723,361.115,356.969,0.0
55393.0,STARLINK-4786,PAYLOAD,2023-04-27 09:06:22,15.69919238,0.0002856,70.0024,208.7547,252.1131,107.9754,4.108e-05,4.729e-05,0.0,0 STARLINK-4786,1 55393U 23014C   23117.37942466  .00004729  00000-0  41080-4 0  9999,2 55393  70.0024 208.7547 0002856 252.1131 107.9754 15.69919238 13650,6737.265,91.724,361.054,357.206,0.0
55393.0,STARLINK-4786,PAYLOAD,2023-04-27 18:16:51,15.69948029,0.0003359,69.9995,207.6787,266.7445,93.3367,6.3214e-05,7.402e-05,0.0,0 STARLINK-4786,1 55393U 23014C   23117.76170690  .00007402  00000-0  63214-4 0  9998,2 55393  69.9995 207.6787 0003359 266.7445  93.3367 15.69948029 13711,6737.183,91.723,361.311,356.785,0.0
55393.0,STARLINK-4786,PAYLOAD,2023-04-27 22:52:06,15.69937324,0.0004173,70.0006,207.1413,260.1634,99.9091,6.4026e-06,5.57e-06,0.0,0 STARLINK-4786,1 55393U 23014C   23117.95285586  .00000557  00000-0  64026-5 0  9997,2 55393  70.0006 207.1413 0004173 260.1634  99.9091 15.69937324 13746,6737.213,91.723,361.89,356.267,0.0
55393.0,STARLINK-4786,PAYLOAD,2023-04-28 12:37:52,15.69929794,0.0002997,70.001,205.5312,249.9613,110.126,-4.0411e-05,-5.069e-05,0.0,0 STARLINK-4786,1 55393U 23014C   23118.52630644 -.00005069  00000-0 -40411-4 0  9996,2 55393  70.0010 205.5312 0002997 249.9613 110.1260 15.69929794 14775,6737.235,91.724,361.119,357.081,0.0
55393.0,STARLINK-4786,PAYLOAD,2023-04-28 17:13:07,15.69948705,0.0003309,70.0011,204.9922,263.4563,96.6256,7.8213e-06,7.29e-06,0.0,0 STARLINK-4786,1 55393U 23014C   23118.71744695  .00000729  00000-0  78213-5 0  9997,2 55393  70.0011 204.9922 0003309 263.4563  96.6256 15.69948705 13864,6737.181,91.723,361.275,356.816,0.0
55393.0,STARLINK-4786,PAYLOAD,2023-04-28 23:20:10,15.69920417,0.0002036,70.0002,204.2754,280.0797,80.0169,-3.0357e-05,-3.859e-05,0.0,0 STARLINK-4786,1 55393U 23014C   23118.97233814 -.00003859  00000-0 -30357-4 0  9996,2 55393  70.0002 204.2754 0002036 280.0797  80.0169 15.69920417 13905,6737.262,91.724,360.498,357.755,0.0
55393.0,STARLINK-4786,PAYLOAD,2023-04-29 08:30:42,15.6988905,0.0003028,70.0007,203.2004,271.0537,89.0312,-7.0466e-05,-8.664e-05,0.0,0 STARLINK-4786,1 55393U 23014C   23119.35465389 -.00008664  00000-0 -70466-4 0  9997,2 55393  70.0007 203.2004 0003028 271.0537  89.0312 15.69889050 13963,6737.351,91.726,361.256,357.176,0.0
55393.0,STARLINK-4786,PAYLOAD,2023-04-29 17:41:11,15.69916521,0.0003365,69.9987,202.1263,269.5706,90.5104,-2.6013e-05,-3.338e-05,0.0,0 STARLINK-4786,1 55393U 23014C   23119.73694226 -.00003338  00000-0 -26013-4 0  9995,2 55393  69.9987 202.1263 0003365 269.5706  90.5104 15.69916521 14024,6737.273,91.725,361.405,356.871,0.0
55393.0,STARLINK-4786,PAYLOAD,2023-04-30 08:58:42,15.69931929,0.0004392,69.9992,200.3346,287.1936,72.8778,4.2158e-05,4.861e-05,0.0,0 STARLINK-4786,1 55393U 23014C   23120.37409878  .00004861  00000-0  42158-4 0  9992,2 55393  69.9992 200.3346 0004392 287.1936  72.8778 15.69931929 14124,6737.229,91.724,362.053,356.135,0.0
55393.0,STARLINK-4786,PAYLOAD,2023-04-30 13:33:57,15.69923416,0.0002948,69.9999,199.7971,262.8485,97.2375,1.7465e-05,1.888e-05,0.0,0 STARLINK-4786,1 55393U 23014C   23120.56525130  .00001888  00000-0  17465-4 0  9992,2 55393  69.9999 199.7971 0002948 262.8485  97.2375 15.69923416 15093,6737.253,91.724,361.104,357.132,0.0
55393.0,STARLINK-4786,PAYLOAD,2023-05-01 04:51:28,15.69925394,0.0002887,69.9996,198.005,270.4119,89.6746,2.3727e-05,2.641e-05,0.0,0 STARLINK-4786,1 55393U 23014C   23121.20241837  .00002641  00000-0  23727-4 0  9999,2 55393  69.9996 198.0050 0002887 270.4119  89.6746 15.69925394 14252,6737.247,91.724,361.057,357.167,0.0
55393.0,STARLINK-4786,PAYLOAD,2023-05-01 12:30:14,15.69922111,0.0002932,69.9994,197.1072,265.8466,94.2394,4.0227e-05,4.626e-05,0.0,0 STARLINK-4786,1 55393U 23014C   23121.52100632  .00004626  00000-0  40227-4 0  9990,2 55393  69.9994 197.1072 0002932 265.8466  94.2394 15.69922111 15243,6737.257,91.724,361.097,357.146,0.0
55393.0,STARLINK-4786,PAYLOAD,2023-05-01 17:05:30,15.69924602,0.0003051,69.9993,196.5702,263.9789,96.1059,3.0782e-05,3.49e-05,0.0,0 STARLINK-4786,1 55393U 23014C   23121.71215387  .00003490  00000-0  30782-4 0  9998,2 55393  69.9993 196.5702 0003051 263.9789  96.1059 15.69924602 15274,6737.25,91.724,361.17,357.059,0.0
55393.0,STARLINK-4786,PAYLOAD,2023-05-02 05:19:29,15.69941826,0.0003261,69.9995,195.1368,269.0122,91.07,-6.9805e-06,-1.053e-05,0.0,0 STARLINK-4786,1 55393U 23014C   23122.22187342 -.00001053  00000-0 -69805-5 0  9998,2 55393  69.9995 195.1368 0003261 269.0122  91.0700 15.69941826 14419,6737.2,91.723,361.262,356.868,0.0
55393.0,STARLINK-4786,PAYLOAD,2023-05-02 12:58:14,15.69955385,0.0002903,69.9996,194.2432,264.1742,95.9123,-7.3552e-05,-9.058e-05,0.0,0 STARLINK-4786,1 55393U 23014C   23122.54044685 -.00009058  00000-0 -73552-4 0  9991,2 55393  69.9996 194.2432 0002903 264.1742  95.9123 15.69955385 14460,6737.162,91.722,360.982,357.071,0.0
55393.0,STARLINK-4786,PAYLOAD,2023-05-02 16:01:46,15.69925232,0.0002324,69.9997,193.8837,288.6015,71.4928,-9.4684e-05,-0.0001158,0.0,0 STARLINK-4786,1 55393U 23014C   23122.66789843 -.00011580  00000-0 -94684-4 0  9998,2 55393  69.9997 193.8837 0002324 288.6015  71.4928 15.69925232 14488,6737.248,91.724,360.679,357.547,0.0
55393.0,STARLINK-4786,PAYLOAD,2023-05-03 13:26:17,15.69932153,0.0003124,69.9991,191.3762,270.3635,89.7202,2.5101e-05,2.807e-05,0.0,0 STARLINK-4786,1 55393U 23014C   23123.55992981  .00002807  00000-0  25101-4 0  9994,2 55393  69.9991 191.3762 0003124 270.3635  89.7202 15.69932153 15564,6737.228,91.724,361.198,356.988,0.0
55393.0,STARLINK-4786,PAYLOAD,2023-05-03 16:29:48,15.69923785,0.0002733,69.9987,191.0179,288.1827,71.9071,7.8222e-06,7.28e-06,0.0,0 STARLINK-4786,1 55393U 23014C   23123.68736932  .00000728  00000-0  78222-5 0  9993,2 55393  69.9987 191.0179 0002733 288.1827  71.9071 15.69923785 14649,6737.252,91.724,360.958,357.276,0.0
55393.0,STARLINK-4786,PAYLOAD,2023-05-04 10:50:50,15.69914509,0.000307,69.9997,188.8688,259.4248,100.6602,-1.202e-06,-3.57e-06,0.0,0 STARLINK-4786,1 55393U 23014C   23124.45197050 -.00000357  00000-0 -12020-5 0  9995,2 55393  69.9997 188.8688 0003070 259.4248 100.6602 15.69914509 14769,6737.279,91.725,361.212,357.075,0.0
55393.0,STARLINK-4786,PAYLOAD,2023-05-04 13:54:20,15.69917334,0.0002934,70.0,188.5103,255.9946,104.0923,4.761e-06,3.6e-06,0.0,0 STARLINK-4786,1 55393U 23014C   23124.57940310  .00000360  00000-0  47610-5 0  9998,2 55393  70.0000 188.5103 0002934 255.9946 104.0923 15.69917334 15720,6737.271,91.725,361.112,357.159,0.0
55393.0,STARLINK-4786,PAYLOAD,2023-05-04 16:57:50,15.69929765,0.0003194,69.9995,188.151,259.3956,100.688,3.0443e-05,3.45e-05,0.0,0 STARLINK-4786,1 55393U 23014C   23124.70683137  .00003450  00000-0  30443-4 0  9992,2 55393  69.9995 188.1510 0003194 259.3956 100.6880 15.69929765 14809,6737.235,91.724,361.252,356.948,0.0
55393.0,STARLINK-4786,PAYLOAD,2023-05-05 05:11:51,15.69920721,0.0003418,69.9978,186.7183,265.0987,94.9819,3.1362e-06,1.64e-06,0.0,0 STARLINK-4786,1 55393U 23014C   23125.21657054  .00000164  00000-0  31362-5 0  9999,2 55393  69.9978 186.7183 0003418 265.0987  94.9819 15.69920721 14885,6737.261,91.724,361.429,356.823,0.0
55393.0,STARLINK-4786,PAYLOAD,2023-05-05 15:54:07,15.69922871,0.0003186,69.9979,185.4638,261.966,98.1175,5.3373e-06,4.29e-06,0.0,0 STARLINK-4786,1 55393U 23014C   23125.66258779  .00000429  00000-0  53373-5 0  9999,2 55393  69.9979 185.4638 0003186 261.9660  98.1175 15.69922871 15893,6737.255,91.724,361.266,356.973,0.0
